JCSAT-13                
1 38331U 12023A   26063.74211444 -.00000367  00000+0  00000+0 0  9995
2 38331   0.0351 266.2360 0002229 121.6332 165.7766  1.00272411 50491
VINASAT-2               
1 38332U 12023B   26063.73100142 -.00000340  00000+0  00000+0 0  9998
2 38332   0.0516 302.7079 0002915  60.6646 194.0813  1.00270133 45615
NIMIQ 6                 
1 38342U 12026A   26063.30600315 -.00000185  00000+0  00000+0 0  9999
2 38342   0.0556 279.8002 0002623  59.4407 201.8624  1.00270970 49369
ZHONGXING-2A            
1 38352U 12028A   26063.91266672 -.00000302  00000+0  00000+0 0  9994
2 38352   1.1849  85.3571 0001230 233.7036 270.4056  1.00272613 50253
INTELSAT 19 (IS-19)     
1 38356U 12030A   26063.61433802  .00000000  00000+0  00000+0 0  9993
2 38356   0.0251 148.6726 0003158 213.0614 187.8067  1.00270205 49404
ECHOSTAR 17             
1 38551U 12035A   26063.35669706 -.00000087  00000+0  00000+0 0  9996
2 38551   0.0204 131.6502 0002015 212.8261 198.9285  1.00272202 50012
METEOSAT-10 (MSG-3)     
1 38552U 12035B   26063.38239013 -.00000013  00000+0  00000+0 0  9993
2 38552   4.4237  61.4637 0002497 294.9203 303.6900  1.00277420 49808
SES-5                   
1 38652U 12036A   26063.37683795  .00000022  00000+0  00000+0 0  9993
2 38652   0.0601 311.1830 0002013  27.7089 323.8631  1.00272007 43405
INTELSAT 20 (IS-20)     
1 38740U 12043A   26063.63360058 -.00000035  00000+0  00000+0 0  9997
2 38740   0.0219 130.7491 0002415  35.5488 292.6685  1.00272783 49692
HYLAS 2                 
1 38741U 12043B   26063.34003264 -.00000268  00000+0  00000+0 0  9997
2 38741   2.1567  82.3867 0002666 281.5791 207.9589  1.00270611 49723
INTELSAT 21 (IS-21)     
1 38749U 12045A   26063.15044815 -.00000297  00000+0  00000+0 0  9995
2 38749   0.0358 264.1524 0001780  84.9537 168.9512  1.00270810 49470
ASTRA 2F                
1 38778U 12051A   26063.84970102  .00000140  00000+0  00000+0 0  9993
2 38778   0.0963 260.6963 0002507   9.3529 226.6283  1.00275639 40092
GSAT-10                 
1 38779U 12051B   26063.75322707 -.00000175  00000+0  00000+0 0  9995
2 38779   0.0728 263.2748 0004300 176.0991  77.2485  1.00273450 49058
INTELSAT 23 (IS-23)     
1 38867U 12057A   26063.34350089 -.00000297  00000+0  00000+0 0  9993
2 38867   0.0540 264.4267 0001206  79.2529 249.0735  1.00270663 48903
BEIDOU-2 G6             
1 38953U 12059A   26063.10227411 -.00000185  00000+0  00000+0 0  9993
2 38953   4.1554  74.6500 0010671 304.2337 263.7683  1.00269514 48856
LUCH-5B                 
1 38977U 12061A   26062.90224160 -.00000146  00000+0  00000+0 0  9994
2 38977  10.2575  50.9099 0004391 223.3648 195.8772  1.00271596 48555
YAMAL 300K              
1 38978U 12061B   26063.56989014  .00000060  00000+0  00000+0 0  9998
2 38978   0.0177 171.0789 0000307  34.1113 345.2268  1.00270784 48582
